{
  "type": "FeatureCollection",
  "features": [
    {
      "type": "Feature",
      "properties": {
        "norad_id": 31369,
        "name": "FENGYUN 1C DEB",
        "group": "fengyun-1c-debris",
        "lat": -56.75937048397624,
        "lon": -19.456992616926982,
        "alt_km": 795.0813801567856,
        "timestamp": "2025-12-11T20:41:15.362939+00:00",
        "meta_object_name": "FENGYUN 1C DEB",
        "meta_object_id": "1999-025BRZ",
        "meta_epoch": "2025-12-11T04:19:15.253824",
        "meta_mean_motion": 14.19407424,
        "meta_eccentricity": 0.00545514,
        "meta_inclination": 98.6193,
        "meta_ra_of_asc_node": 326.4983,
        "meta_arg_of_pericenter": 304.0379,
        "meta_mean_anomaly": 115.5695,
        "meta_ephemeris_type": 0,
        "meta_classification_type": "U",
        "meta_norad_cat_id": 31369,
        "meta_element_set_no": 999,
        "meta_rev_at_epoch": 64305,
        "meta_bstar": 0.00043400401,
        "meta_mean_motion_dot": 8.83e-06,
        "meta_mean_motion_ddot": 0,
        "tle_line1": "1 31369U 99025BRZ 25345.18003766  .00000883  00000+0  43400-3 0  9999",
        "tle_line2": "2 31369  98.6193 326.4983 0054551 304.0379 115.5695 14.19407424643057"
      },
      "geometry": {
        "type": "Point",
        "coordinates": [
          -19.456992616926982,
          -56.75937048397624
        ]
      }
    },
    {
      "type": "Feature",
      "properties": {
        "norad_id": 31370,
        "name": "FENGYUN 1C DEB",
        "group": "fengyun-1c-debris",
        "lat": 70.63098716563532,
        "lon": -168.1054954734432,
        "alt_km": 877.2353979625641,
        "timestamp": "2025-12-11T20:41:15.362948+00:00",
        "meta_object_name": "FENGYUN 1C DEB",
        "meta_object_id": "1999-025BSA",
        "meta_epoch": "2025-12-09T10:15:45.050400",
        "meta_mean_motion": 14.0970042,
        "meta_eccentricity": 0.00335624,
        "meta_inclination": 98.7542,
        "meta_ra_of_asc_node": 343.5312,
        "meta_arg_of_pericenter": 306.6769,
        "meta_mean_anomaly": 53.1319,
        "meta_ephemeris_type": 0,
        "meta_classification_type": "U",
        "meta_norad_cat_id": 31370,
        "meta_element_set_no": 999,
        "meta_rev_at_epoch": 96247,
        "meta_bstar": 0.00064849325,
        "meta_mean_motion_dot": 1.1e-05,
        "meta_mean_motion_ddot": 0,
        "tle_line1": "1 31370U 99025BSA 25343.42760475  .00001100  00000+0  64849-3 0  9996",
        "tle_line2": "2 31370  98.7542 343.5312 0033562 306.6769  53.1319 14.09700420962475"
      },
      "geometry": {
        "type": "Point",
        "coordinates": [
          -168.1054954734432,
          70.63098716563532
        ]
      }
    },
    {
      "type": "Feature",
      "properties": {
        "norad_id": 31371,
        "name": "FENGYUN 1C DEB",
        "group": "fengyun-1c-debris",
        "lat": 26.170548376488107,
        "lon": 14.534344627851322,
        "alt_km": 918.6227023192214,
        "timestamp": "2025-12-11T20:41:15.362958+00:00",
        "meta_object_name": "FENGYUN 1C DEB",
        "meta_object_id": "1999-025BSB",
        "meta_epoch": "2025-12-11T13:43:18.328224",
        "meta_mean_motion": 14.04504261,
        "meta_eccentricity": 0.00777282,
        "meta_inclination": 98.7667,
        "meta_ra_of_asc_node": 18.6031,
        "meta_arg_of_pericenter": 249.9267,
        "meta_mean_anomaly": 109.3523,
        "meta_ephemeris_type": 0,
        "meta_classification_type": "U",
        "meta_norad_cat_id": 31371,
        "meta_element_set_no": 999,
        "meta_rev_at_epoch": 95730,
        "meta_bstar": 0.0010175497,
        "meta_mean_motion_dot": 1.625e-05,
        "meta_mean_motion_ddot": 0,
        "tle_line1": "1 31371U 99025BSB 25345.57173991  .00001625  00000+0  10175-2 0  9990",
        "tle_line2": "2 31371  98.7667  18.6031 0077728 249.9267 109.3523 14.04504261957303"
      },
      "geometry": {
        "type": "Point",
        "coordinates": [
          14.534344627851322,
          26.170548376488107
        ]
      }
    },
    {
      "type": "Feature",
      "properties": {
        "norad_id": 31372,
        "name": "FENGYUN 1C DEB",
        "group": "fengyun-1c-debris",
        "lat": 55.90139431772721,
        "lon": -37.27788810459796,
        "alt_km": 775.14439373199,
        "timestamp": "2025-12-11T20:41:15.362968+00:00",
        "meta_object_name": "FENGYUN 1C DEB",
        "meta_object_id": "1999-025BSC",
        "meta_epoch": "2025-12-11T10:19:19.656768",
        "meta_mean_motion": 14.26522862,
        "meta_eccentricity": 0.00338351,
        "meta_inclination": 99.3734,
        "meta_ra_of_asc_node": 336.3816,
        "meta_arg_of_pericenter": 78.5335,
        "meta_mean_anomaly": 281.9639,
        "meta_ephemeris_type": 0,
        "meta_classification_type": "U",
        "meta_norad_cat_id": 31372,
        "meta_element_set_no": 999,
        "meta_rev_at_epoch": 95832,
        "meta_bstar": 0.0027922807,
        "meta_mean_motion_dot": 6.728e-05,
        "meta_mean_motion_ddot": 0,
        "tle_line1": "1 31372U 99025BSC 25345.43008862  .00006728  00000+0  27923-2 0  9998",
        "tle_line2": "2 31372  99.3734 336.3816 0033835  78.5335 281.9639 14.26522862958329"
      },
      "geometry": {
        "type": "Point",
        "coordinates": [
          -37.27788810459796,
          55.90139431772721
        ]
      }
    },
    {
      "type": "Feature",
      "properties": {
        "norad_id": 31376,
        "name": "FENGYUN 1C DEB",
        "group": "fengyun-1c-debris",
        "lat": -27.54096977661208,
        "lon": 77.36381020250656,
        "alt_km": 678.2667267975812,
        "timestamp": "2025-12-11T20:41:15.362978+00:00",
        "meta_object_name": "FENGYUN 1C DEB",
        "meta_object_id": "1999-025BSG",
        "meta_epoch": "2025-12-11T04:56:55.150368",
        "meta_mean_motion": 14.61649104,
        "meta_eccentricity": 0.00491331,
        "meta_inclination": 98.8337,
        "meta_ra_of_asc_node": 261.3153,
        "meta_arg_of_pericenter": 273.9545,
        "meta_mean_anomaly": 85.6038,
        "meta_ephemeris_type": 0,
        "meta_classification_type": "U",
        "meta_norad_cat_id": 31376,
        "meta_element_set_no": 999,
        "meta_rev_at_epoch": 98120,
        "meta_bstar": 0.0035183741,
        "meta_mean_motion_dot": 0.00017795,
        "meta_mean_motion_ddot": 0,
        "tle_line1": "1 31376U 99025BSG 25345.20619387  .00017795  00000+0  35184-2 0  9991",
        "tle_line2": "2 31376  98.8337 261.3153 0049133 273.9545  85.6038 14.61649104981202"
      },
      "geometry": {
        "type": "Point",
        "coordinates": [
          77.36381020250656,
          -27.54096977661208
        ]
      }
    },
    {
      "type": "Feature",
      "properties": {
        "norad_id": 31378,
        "name": "FENGYUN 1C DEB",
        "group": "fengyun-1c-debris",
        "lat": 78.8563358524099,
        "lon": 159.89437157222577,
        "alt_km": 1002.7966002671728,
        "timestamp": "2025-12-11T20:41:15.362990+00:00",
        "meta_object_name": "FENGYUN 1C DEB",
        "meta_object_id": "1999-025BSJ",
        "meta_epoch": "2025-12-10T21:38:09.675168",
        "meta_mean_motion": 13.8007179,
        "meta_eccentricity": 0.0168486,
        "meta_inclination": 100.7553,
        "meta_ra_of_asc_node": 233.577,
        "meta_arg_of_pericenter": 202.5326,
        "meta_mean_anomaly": 156.836,
        "meta_ephemeris_type": 0,
        "meta_classification_type": "U",
        "meta_norad_cat_id": 31378,
        "meta_element_set_no": 999,
        "meta_rev_at_epoch": 94198,
        "meta_bstar": 0.0009549,
        "meta_mean_motion_dot": 1.049e-05,
        "meta_mean_motion_ddot": 0,
        "tle_line1": "1 31378U 99025BSJ 25344.90150087  .00001049  00000+0  95490-3 0  9998",
        "tle_line2": "2 31378 100.7553 233.5770 0168486 202.5326 156.8360 13.80071790941981"
      },
      "geometry": {
        "type": "Point",
        "coordinates": [
          159.89437157222577,
          78.8563358524099
        ]
      }
    },
    {
      "type": "Feature",
      "properties": {
        "norad_id": 31381,
        "name": "FENGYUN 1C DEB",
        "group": "fengyun-1c-debris",
        "lat": 28.691980672965297,
        "lon": -106.03278821757331,
        "alt_km": 827.4759357757766,
        "timestamp": "2025-12-11T20:41:15.363002+00:00",
        "meta_object_name": "FENGYUN 1C DEB",
        "meta_object_id": "1999-025BSM",
        "meta_epoch": "2025-12-11T11:38:53.452032",
        "meta_mean_motion": 14.37039994,
        "meta_eccentricity": 0.01985983,
        "meta_inclination": 98.4925,
        "meta_ra_of_asc_node": 68.9047,
        "meta_arg_of_pericenter": 35.7153,
        "meta_mean_anomaly": 325.7133,
        "meta_ephemeris_type": 0,
        "meta_classification_type": "U",
        "meta_norad_cat_id": 31381,
        "meta_element_set_no": 999,
        "meta_rev_at_epoch": 97382,
        "meta_bstar": 0.00046825027,
        "meta_mean_motion_dot": 1.693e-05,
        "meta_mean_motion_ddot": 0,
        "tle_line1": "1 31381U 99025BSM 25345.48534088  .00001693  00000+0  46825-3 0  9996",
        "tle_line2": "2 31381  98.4925  68.9047 0198598  35.7153 325.7133 14.37039994973825"
      },
      "geometry": {
        "type": "Point",
        "coordinates": [
          -106.03278821757331,
          28.691980672965297
        ]
      }
    }
  ]
}